[{"OBJECT_NAME":"STARLINK-30390","OBJECT_ID":"2023-138M","EPOCH":"2026-03-09T22:00:01.999584","MEAN_MOTION":15.26710793,"ECCENTRICITY":0.00017343,"INCLINATION":43.0006,"RA_OF_ASC_NODE":233.0095,"ARG_OF_PERICENTER":286.8346,"MEAN_ANOMALY":4.739,"EPHEMERIS_TYPE":0,"CLASSIFICATION_TYPE":"U","NORAD_CAT_ID":57819,"ELEMENT_SET_NO":999,"REV_AT_EPOCH":572,"BSTAR":0.0028597746,"MEAN_MOTION_DOT":0.00077189,"MEAN_MOTION_DDOT":0},{"OBJECT_NAME":"COSMOS 252 DEB","OBJECT_ID":"1968-097BM","EPOCH":"2026-03-09T19:23:01.251168","MEAN_MOTION":14.84266968,"ECCENTRICITY":0.01906429,"INCLINATION":62.1994,"RA_OF_ASC_NODE":322.7421,"ARG_OF_PERICENTER":219.9576,"MEAN_ANOMALY":138.735,"EPHEMERIS_TYPE":0,"CLASSIFICATION_TYPE":"U","NORAD_CAT_ID":3900,"ELEMENT_SET_NO":999,"REV_AT_EPOCH":87477,"BSTAR":0.00094776544,"MEAN_MOTION_DOT":0.00010849,"MEAN_MOTION_DDOT":0}]
